NORAD_CAT_ID,OBJECT_NAME,OBJECT_TYPE,EPOCH,MEAN_MOTION,ECCENTRICITY,INCLINATION,RA_OF_ASC_NODE,ARG_OF_PERICENTER,MEAN_ANOMALY,BSTAR,MEAN_MOTION_DOT,MEAN_MOTION_DDOT,TLE_LINE0,TLE_LINE1,TLE_LINE2,SEMIMAJOR_AXIS,PERIOD,APOGEE,PERIGEE,DECAYED
53910.0,STARLINK-5056,PAYLOAD,2023-06-11 14:35:09,15.08835787,0.0001178,53.2152,132.7033,87.2627,272.85,-1.0497e-07,-2.89e-06,0.0,0 STARLINK-5056,1 53910U 22119AA  23162.60775007 -.00000289  00000-0 -10497-6 0  9997,2 53910  53.2152 132.7033 0001178  87.2627 272.8500 15.08835787 40129,6917.893,95.438,540.573,538.943,0.0
53910.0,STARLINK-5056,PAYLOAD,2023-06-12 04:53:37,15.08838303,0.0001145,53.2151,130.0266,85.6317,274.4806,7.7801e-05,9.51e-06,0.0,0 STARLINK-5056,1 53910U 22119AA  23163.20390686  .00000951  00000-0  77801-4 0  9994,2 53910  53.2151 130.0266 0001145  85.6317 274.4806 15.08838303 40639,6917.886,95.438,540.543,538.958,0.0
53910.0,STARLINK-5056,PAYLOAD,2023-06-12 22:22:52,15.0883673,0.0001123,53.2153,126.7552,81.1389,278.9731,1.6419e-05,-2.7e-07,0.0,0 STARLINK-5056,1 53910U 22119AA  23163.93255212 -.00000027  00000-0  16419-4 0  9992,2 53910  53.2153 126.7552 0001123  81.1389 278.9731 15.08836730 40747,6917.89,95.438,540.532,538.979,0.0
53910.0,STARLINK-5056,PAYLOAD,2023-06-13 06:19:48,15.08831655,0.0001153,53.2155,125.2686,81.7306,278.3816,-2.2529e-05,-6.46e-06,0.0,0 STARLINK-5056,1 53910U 22119AA  23164.26375817 -.00000646  00000-0 -22529-4 0  9990,2 53910  53.2155 125.2686 0001153  81.7306 278.3816 15.08831655 40377,6917.906,95.438,540.569,538.973,0.0
53910.0,STARLINK-5056,PAYLOAD,2023-06-14 07:45:57,15.08848309,0.0001339,53.2165,120.5095,89.1558,270.9588,4.0391e-05,3.55e-06,0.0,0 STARLINK-5056,1 53910U 22119AA  23165.32358595  .00000355  00000-0  40391-4 0  9994,2 53910  53.2165 120.5095 0001339  89.1558 270.9588 15.08848309 40533,6917.855,95.437,540.646,538.794,0.0
53910.0,STARLINK-5056,PAYLOAD,2023-06-15 02:50:36,15.08835998,0.0001395,53.2166,116.9389,98.3989,261.7162,1.6191e-05,-3e-07,0.0,0 STARLINK-5056,1 53910U 22119AA  23166.11847603 -.00000030  00000-0  16191-4 0  9997,2 53910  53.2166 116.9389 0001395  98.3989 261.7162 15.08835998 40650,6917.893,95.438,540.723,538.793,0.0
53910.0,STARLINK-5056,PAYLOAD,2023-06-15 06:01:22,15.08834679,0.0001321,53.2163,116.3444,100.2684,259.8457,1.8159e-06,-2.59e-06,0.0,0 STARLINK-5056,1 53910U 22119AA  23166.25095736 -.00000259  00000-0  18159-5 0  9994,2 53910  53.2163 116.3444 0001321 100.2684 259.8457 15.08834679 41096,6917.897,95.438,540.676,538.848,0.0
53910.0,STARLINK-5056,PAYLOAD,2023-06-16 02:41:23,15.08849383,0.0001367,53.2164,112.4789,100.0159,260.0988,-9.5129e-05,-1.802e-05,0.0,0 STARLINK-5056,1 53910U 22119AA  23167.11207310 -.00001802  00000-0 -95129-4 0  9990,2 53910  53.2164 112.4789 0001367 100.0159 260.0988 15.08849383 40800,6917.852,95.437,540.662,538.771,0.0
53910.0,STARLINK-5056,PAYLOAD,2023-06-16 05:52:08,15.08855482,0.0001388,53.2156,111.8865,94.1464,265.9687,-3.9093e-05,-9.1e-06,0.0,0 STARLINK-5056,1 53910U 22119AA  23167.24454710 -.00000910  00000-0 -39093-4 0  9999,2 53910  53.2156 111.8865 0001388  94.1464 265.9687 15.08855482 40823,6917.833,95.437,540.658,538.738,0.0
53910.0,STARLINK-5056,PAYLOAD,2023-06-16 13:49:04,15.08856157,0.0001398,53.2156,110.4002,91.9842,268.1311,-2.7201e-05,-7.21e-06,0.0,0 STARLINK-5056,1 53910U 22119AA  23167.57574350 -.00000721  00000-0 -27201-4 0  9996,2 53910  53.2156 110.4002 0001398  91.9842 268.1311 15.08856157 41298,6917.831,95.437,540.663,538.729,0.0
53910.0,STARLINK-5056,PAYLOAD,2023-06-17 02:32:09,15.08844622,0.0001378,53.2159,108.0199,101.7729,258.3418,8.7005e-05,1.097e-05,0.0,0 STARLINK-5056,1 53910U 22119AA  23168.10566552  .00001097  00000-0  87005-4 0  9994,2 53910  53.2159 108.0199 0001378 101.7729 258.3418 15.08844622 40958,6917.866,95.437,540.685,538.778,0.0
53910.0,STARLINK-5056,PAYLOAD,2023-06-17 05:42:55,15.08846915,0.0001446,53.216,107.4253,99.6186,260.497,0.00010032,1.309e-05,0.0,0 STARLINK-5056,1 53910U 22119AA  23168.23814329  .00001309  00000-0  10032-3 0  9997,2 53910  53.2160 107.4253 0001446  99.6186 260.4970 15.08846915 41395,6917.859,95.437,540.725,538.724,0.0
53910.0,STARLINK-5056,PAYLOAD,2023-06-17 20:01:25,15.08831859,0.0001694,53.2161,104.7495,96.821,263.2975,-0.0001209,-2.211e-05,0.0,0 STARLINK-5056,1 53910U 22119AA  23168.83432376 -.00002211  00000-0 -12090-3 0  9992,2 53910  53.2161 104.7495 0001694  96.8210 263.2975 15.08831859 41483,6917.905,95.438,540.942,538.598,0.0
53910.0,STARLINK-5056,PAYLOAD,2023-06-18 02:22:58,15.08829411,0.000169,53.2162,103.5623,87.1928,272.9258,-0.00012415,-2.263e-05,0.0,0 STARLINK-5056,1 53910U 22119AA  23169.09928724 -.00002263  00000-0 -12415-3 0  9996,2 53910  53.2162 103.5623 0001690  87.1928 272.9258 15.08829411 41100,6917.913,95.438,540.947,538.609,0.0
53910.0,STARLINK-5056,PAYLOAD,2023-06-18 05:33:44,15.08828705,0.0001561,53.2164,102.9672,86.3978,273.7193,-0.00012319,-2.247e-05,0.0,0 STARLINK-5056,1 53910U 22119AA  23169.23176848 -.00002247  00000-0 -12319-3 0  9999,2 53910  53.2164 102.9672 0001561  86.3978 273.7193 15.08828705 41542,6917.915,95.438,540.86,538.7,0.0
53910.0,STARLINK-5056,PAYLOAD,2023-06-18 19:52:12,15.08837795,0.0001396,53.2167,100.2904,88.5533,271.5619,-1.4576e-05,-5.2e-06,0.0,0 STARLINK-5056,1 53910U 22119AA  23169.82792067 -.00000520  00000-0 -14576-4 0  9991,2 53910  53.2167 100.2904 0001396  88.5533 271.5619 15.08837795 41213,6917.887,95.438,540.718,538.786,0.0
53910.0,STARLINK-5056,PAYLOAD,2023-06-19 02:13:44,15.08844708,0.0001401,53.2169,99.1008,88.5294,271.5859,4.7515e-05,4.68e-06,0.0,0 STARLINK-5056,1 53910U 22119AA  23170.09287406  .00000468  00000-0  47515-4 0  9996,2 53910  53.2169  99.1008 0001401  88.5294 271.5859 15.08844708 41259,6917.866,95.437,540.7,538.762,0.0
53910.0,STARLINK-5056,PAYLOAD,2023-06-19 11:46:03,15.08844572,0.000136,53.2159,97.3171,85.8899,274.2249,-9.1849e-06,-4.34e-06,0.0,0 STARLINK-5056,1 53910U 22119AA  23170.49031494 -.00000434  00000-0 -91849-5 0  9999,2 53910  53.2159  97.3171 0001360  85.8899 274.2249 15.08844572 41739,6917.866,95.437,540.672,538.791,0.0
53910.0,STARLINK-5056,PAYLOAD,2023-06-20 02:04:32,15.08833083,0.0001454,53.2168,94.6395,80.5837,279.532,0.00013236,1.819e-05,0.0,0 STARLINK-5056,1 53910U 22119AA  23171.08648183  .00001819  00000-0  13236-3 0  9992,2 53910  53.2168  94.6395 0001454  80.5837 279.5320 15.08833083 41402,6917.902,95.438,540.772,538.761,0.0
53910.0,STARLINK-5056,PAYLOAD,2023-06-20 11:36:50,15.08836265,0.0001492,53.2173,92.8557,81.4137,278.7024,0.00011556,1.551e-05,0.0,0 STARLINK-5056,1 53910U 22119AA  23171.48392135  .00001551  00000-0  11556-3 0  9995,2 53910  53.2173  92.8557 0001492  81.4137 278.7024 15.08836265 41882,6917.892,95.438,540.789,538.725,0.0
53910.0,STARLINK-5056,PAYLOAD,2023-06-20 19:33:46,15.08838383,0.0001542,53.2167,91.3698,91.858,268.2589,-6.17e-05,-1.27e-05,0.0,0 STARLINK-5056,1 53910U 22119AA  23171.81512667 -.00001270  00000-0 -61700-4 0  9993,2 53910  53.2167  91.3698 0001542  91.8580 268.2589 15.08838383 41937,6917.885,95.438,540.817,538.684,0.0
53910.0,STARLINK-5056,PAYLOAD,2023-06-21 11:27:38,15.08839893,0.0001624,53.2175,88.3969,89.4183,270.6995,-5.5134e-05,-1.165e-05,0.0,0 STARLINK-5056,1 53910U 22119AA  23172.47752510 -.00001165  00000-0 -55134-4 0  9996,2 53910  53.2175  88.3969 0001624  89.4183 270.6995 15.08839893 41616,6917.881,95.438,540.869,538.622,0.0
53910.0,STARLINK-5056,PAYLOAD,2023-06-22 01:46:07,15.08832966,0.0001488,53.2176,85.7199,85.4606,274.6556,-9.6139e-05,-1.817e-05,0.0,0 STARLINK-5056,1 53910U 22119AA  23173.07369384 -.00001817  00000-0 -96139-4 0  9990,2 53910  53.2176  85.7199 0001488  85.4606 274.6556 15.08832966 41708,6917.902,95.438,540.796,538.738,0.0
53910.0,STARLINK-5056,PAYLOAD,2023-06-22 17:39:58,15.08837793,0.0001746,53.2178,82.7458,82.8892,277.2298,3.1471e-05,2.13e-06,0.0,0 STARLINK-5056,1 53910U 22119AA  23173.73608928  .00000213  00000-0  31471-4 0  9998,2 53910  53.2178  82.7458 0001746  82.8892 277.2298 15.08837793 41806,6917.887,95.438,540.96,538.544,0.0
53910.0,STARLINK-5056,PAYLOAD,2023-06-23 01:36:52,15.08847289,0.0001298,53.2164,81.2589,84.9812,275.1328,0.00011727,1.579e-05,0.0,0 STARLINK-5056,1 53910U 22119AA  23174.06727929  .00001579  00000-0  11727-3 0  9995,2 53910  53.2164  81.2589 0001298  84.9812 275.1328 15.08847289 41854,6917.858,95.437,540.621,538.825,0.0
53910.0,STARLINK-5056,PAYLOAD,2023-06-23 17:30:45,15.08833924,0.0001369,53.2158,78.284,84.6665,275.4483,0.00011896,1.606e-05,0.0,0 STARLINK-5056,1 53910U 22119AA  23174.72968780  .00001606  00000-0  11896-3 0  9998,2 53910  53.2158  78.2840 0001369  84.6665 275.4483 15.08833924 41952,6917.899,95.438,540.711,538.817,0.0
53910.0,STARLINK-5056,PAYLOAD,2023-06-24 03:03:03,15.08842391,0.0001302,53.2164,76.4997,88.1212,271.9929,9.0701e-05,1.156e-05,0.0,0 STARLINK-5056,1 53910U 22119AA  23175.12712396  .00001156  00000-0  90701-4 0  9996,2 53910  53.2164  76.4997 0001302  88.1212 271.9929 15.08842391 42018,6917.873,95.437,540.639,538.837,0.0
53910.0,STARLINK-5056,PAYLOAD,2023-06-25 17:12:19,15.0883726,0.0001341,53.2159,69.3624,91.1447,268.9699,-1.349e-05,-5.03e-06,0.0,0 STARLINK-5056,1 53910U 22119AA  23176.71688769 -.00000503  00000-0 -13490-4 0  9995,2 53910  53.2159  69.3624 0001341  91.1447 268.9699 15.08837260 42252,6917.889,95.438,540.681,538.826,0.0
53910.0,STARLINK-5056,PAYLOAD,2023-06-26 02:44:37,15.08846324,0.000122,53.2161,67.5797,74.6736,285.4391,-1.4921e-05,-5.25e-06,0.0,0 STARLINK-5056,1 53910U 22119AA  23177.11432213 -.00000525  00000-0 -14921-4 0  9995,2 53910  53.2161  67.5797 0001220  74.6736 285.4391 15.08846324 42310,6917.861,95.437,540.57,538.882,0.0
53910.0,STARLINK-5056,PAYLOAD,2023-06-26 17:03:06,15.0883235,0.0001184,53.2162,64.903,81.3118,278.8008,-2.0377e-05,-6.12e-06,0.0,0 STARLINK-5056,1 53910U 22119AA  23177.71049203 -.00000612  00000-0 -20377-4 0  9993,2 53910  53.2162  64.9030 0001184  81.3118 278.8008 15.08832350 42405,6917.904,95.438,540.588,538.95,0.0
